DELTA 2 R/B(1)          
1 20453U 90008B   26097.98019237  .00063173  00000+0  64695-3 0  9996
2 20453  35.6037 342.0561 0076124 174.7134 185.4421 15.60158079930704
COSMOS 2058             
1 20465U 90010A   26098.17468581  .00003837  00000+0  22408-3 0  9991
2 20465  82.4726  18.3780 0008478 225.0882 134.9661 15.11621814946693
SL-14 R/B               
1 20466U 90010B   26098.09337659  .00000552  00000+0  63899-4 0  9995
2 20466  82.5013 239.7628 0019322 198.9986 161.0511 14.83600184932849
SL-14 R/B               
1 20511U 90018B   26098.00436051  .00000440  00000+0  52222-4 0  9995
2 20511  82.5245 195.6975 0016106   0.8366 359.2873 14.82175521926927
HST                     
1 20580U 90037B   26097.97448972  .00007215  00000+0  23377-3 0  9997
2 20580  28.4726 200.1581 0002354  91.8835 268.2030 15.29978595777801
SL-16 R/B               
1 20625U 90046B   26097.82218242 -.00000093  00000+0 -23460-4 0  9999
2 20625  70.9993 236.7252 0016615 261.9008  98.0229 14.15019304852515
COSMOS 2084             
1 20663U 90055A   26098.07548585  .00002576  00000+0  19023-3 0  9990
2 20663  62.7903 235.3366 0012301 200.3177 159.7436 15.05838543940742
SL-6 R/B(2)             
1 20666U 90055D   26098.16506001  .00001322  00000+0  10973-3 0  9993
2 20666  62.7821 153.6046 0029649 353.4944   6.5766 15.03741914942623
SL-8 R/B                
1 20775U 90078B   26098.06602196  .00010646  00000+0  31495-3 0  9991
2 20775  82.9046 224.8706 0357051 274.8133  81.2411 14.89927608813676
SL-8 R/B                
1 21088U 91006B   26098.18716469  .00000103  00000+0  88081-4 0  9994
2 21088  82.9427 148.1135 0021263 315.1483 104.8612 13.77499547768138
OKEAN-3                 
1 21397U 91039A   26098.06828726  .00002589  00000+0  18033-3 0  9999
2 21397  82.5157 308.3738 0013237 227.8175 132.1929 15.04990952869455
COSMOS 2151             
1 21422U 91042A   26098.16510821  .00002359  00000+0  18623-3 0  9997
2 21422  82.4968  55.2362 0011376 327.1016  32.9499 15.00247229867617
SL-14 R/B               
1 21423U 91042B   26097.99613971  .00000457  00000+0  54712-4 0  9995
2 21423  82.4961 192.7089 0018017 141.1775 219.0738 14.81860968857419
ERS-1                   
1 21574U 91050A   26098.03074825  .00000326  00000+0  11871-3 0  9999
2 21574  98.7855 117.0002 0033038 114.5543 245.9094 14.39473518819954
ARIANE 40 R/B           
1 21610U 91050F   26098.15060098  .00000298  00000+0  10156-3 0  9993
2 21610  98.1952 149.2724 0002888  10.3943 349.7307 14.42916750823242
INTERCOSMOS 25          
1 21819U 91086A   26097.96071691  .00001096  00000+0  20885-3 0  9999
2 21819  82.6000 292.3091 1486144  53.8604 319.1010 12.12103821500235
SL-8 R/B                
1 21876U 92008B   26098.19493813  .00000045  00000+0  30622-4 0  9991
2 21876  82.9249 245.8250 0035625  53.7551 119.9337 13.75970064713470
SL-8 R/B                
1 21938U 92020B   26098.07237407  .00000000  00000+0 -15268-4 0  9997
2 21938  82.9284 131.9425 0028252 213.2722 175.7817 13.75550640705173
USA 81                  
1 21949U 92023A   26098.06880549  .00000175  00000+0  57244-4 0  9994
2 21949  85.0037 114.4837 0001385  73.2710 286.8634 14.32378156 98997
COSMOS 2219             
1 22219U 92076A   26097.94804419 -.00000109  00000+0 -32361-4 0  9993
2 22219  71.0599 316.9090 0017549 162.1437 198.0306 14.14088083722518
SL-16 R/B               
1 22220U 92076B   26098.06713292  .00000079  00000+0  63251-4 0  9993
2 22220  70.9979 126.4935 0011114  42.7487  24.0922 14.16862782725997
COSMOS 2221             
1 22236U 92080A   26098.12922611  .00001834  00000+0  15952-3 0  9993
2 22236  82.5021 250.8717 0015674  94.1449 266.1565 14.96339350785193
SL-16 R/B               
1 22285U 92093B   26097.99686750 -.00000203  00000+0 -79764-4 0  9999
2 22285  71.0211 302.7440 0006654 265.4237  94.6126 14.15455462717306
COSMOS 2228             
1 22286U 92094A   26098.12583777  .00002474  00000+0  21023-3 0  9996
2 22286  82.5199 209.1279 0017559 198.5619 161.4965 14.97358304780463
SL-16 R/B               
1 22566U 93016B   26098.18160760  .00000284  00000+0  17013-3 0  9992
2 22566  71.0070 153.2436 0012482 276.7203  83.2499 14.15311286706343
COSMOS 2242             
1 22626U 93024A   26098.12086554  .00002335  00000+0  20189-3 0  9997
2 22626  82.5181 238.5578 0015799 201.8424 158.2127 14.96691601784799
SL-16 R/B               
1 22803U 93059B   26097.97981992  .00000248  00000+0  14617-3 0  9994
2 22803  70.9903 309.3617 0016819 172.9481 187.1883 14.17236401683687
ARIANE 40 R/B           
1 22830U 93061H   26098.16690435  .00000209  00000+0  92234-4 0  9997
2 22830  98.4864 166.4650 0010598 190.6668 169.4293 14.32877899698323
COSMOS 2278             
1 23087U 94023A   26098.16021024  .00000123  00000+0  88758-4 0  9994
2 23087  71.0503 113.4408 0009465 330.6496  29.4094 14.14375764648978
SL-16 R/B               
1 23088U 94023B   26098.19337787 -.00000017  00000+0  15949-4 0  9999
2 23088  71.0033   8.9267 0005652 260.3759  99.6726 14.15020442650260
SL-16 R/B               
1 23343U 94074B   26098.07247800  .00000454  00000+0  67397-4 0  9990
2 23343  97.7063 127.6944 0007883 119.7559 264.2821 14.79443398691592
SL-16 R/B               
1 23405U 94077B   26097.95148829 -.00000168  00000+0 -61313-4 0  9995
2 23405  70.9814 290.9282 0001405 181.5445 178.5674 14.15566997620374
ARIANE 40+ R/B          
1 23561U 95021B   26098.20518444  .00000281  00000+0  10343-3 0  9991
2 23561  98.4448 169.2805 0007679  60.4488 318.9781 14.39795028623495
SL-16 R/B               
1 23705U 95058B   26098.17192090  .00000144  00000+0  97966-4 0  9997
2 23705  71.0187 118.3593 0010431  71.8896 288.3362 14.15498582572026
SL-16 R/B               
1 24298U 96051B   26098.06096848  .00000052  00000+0  54532-4 0  9991
2 24298  70.7580 113.0718 0012899  99.1595 261.0984 14.12424075525790
ORBVIEW 2 (SEASTAR)     
1 24883U 97037A   26098.18044416  .00000264  00000+0  10793-3 0  9998
2 24883  98.8619 263.2816 0001861   3.4356 356.6841 14.35516806512700
SL-16 R/B               
1 25400U 98043G   26098.12996530  .00000071  00000+0  48920-4 0  9999
2 25400  98.8301  51.7112 0008821 291.9303  68.0939 14.26056991443183
SL-16 R/B               
1 25407U 98045B   26098.16836445  .00000246  00000+0  14847-3 0  9994
2 25407  71.0088 119.5825 0008419 325.6750  34.3828 14.16195141431273
ISS (ZARYA)             
1 25544U 98067A   26098.00520294  .00007234  00000+0  14015-3 0  9996
2 25544  51.6328 287.4161 0006333 285.7517  74.2772 15.48824658560872
CZ-4B R/B               
1 25732U 99025C   26098.15639667  .00000051  00000+0  45466-4 0  9996
2 25732  98.6564 141.7315 0035989 259.7622 170.4338 14.18271530392347
OKEAN-O                 
1 25860U 99039A   26098.12220972  .00000617  00000+0  87637-4 0  9999
2 25860  97.9382 157.7054 0000992 109.6309 250.5010 14.80385013438740
SL-16 R/B               
1 25861U 99039B   26098.07445093  .00000587  00000+0  81058-4 0  9994
2 25861  97.9903 157.1178 0015350 157.3874 202.8018 14.81774569441215
DELTA 2 R/B             
1 25876U 99041E   26097.96120169  .00000640  00000+0  14291-3 0  9998
2 25876  51.7608 184.3461 0502629  74.7490 290.8422 14.11905271367160
HELIOS 1B               
1 25977U 99064A   26098.17206859  .00001217  00000+0  13958-3 0  9990
2 25977  98.1658   1.2784 0001264  40.8953 319.2357 14.87821423689646
TERRA                   
1 25994U 99068A   26098.16860578  .00000419  00000+0  94287-4 0  9994
2 25994  97.9533 150.4680 0003658  91.3842 353.3398 14.61048120399383
SL-16 R/B               
1 26070U 00006B   26097.90884499 -.00000083  00000+0 -18046-4 0  9991
2 26070  71.0045  36.3959 0015020 143.8543 216.3598 14.15831449352694
TITAN 4B R/B            
1 26474U 00047B   26098.11236906  .00002775  00000+0  17629-3 0  9995
2 26474  67.9893 317.7602 0040812   1.2702 358.8543 15.09834974397353
ENVISAT                 
1 27386U 02009A   26098.15273663  .00000129  00000+0  55577-4 0  9999
2 27386  98.3775  51.0577 0001165  82.7469 286.9941 14.39047853263410
IDEFIX & ARIANE 42P R/B 
1 27422U 02021B   26098.07178926  .00000298  00000+0  12953-3 0  9998
2 27422  98.5900  36.3330 0012936  99.6799 260.5846 14.31047500248222
AQUA                    
1 27424U 02022A   26098.18735447  .00000969  00000+0  20285-3 0  9992
2 27424  98.4224  66.1010 0001551 113.1680 336.5992 14.62048882273042
CZ-4B R/B               
1 27432U 02024C   26098.20934094  .00000031  00000+0  38918-4 0  9998
2 27432  98.8778 151.4587 0049158 299.7476  93.7521 14.14553196233418
MIDORI II (ADEOS-II)    
1 27597U 02056A   26098.13545997  .00000331  00000+0  14784-3 0  9994
2 27597  98.7818  56.8263 0000203  28.9284 331.1909 14.29309098214504
H-2A R/B                
1 27601U 02056E   26097.87750465  .00000355  00000+0  13851-3 0  9998
2 27601  98.3252  57.1412 0071395  74.8661 343.3954 14.33782737218292
CZ-4B R/B               
1 28059U 03049C   26097.95347351  .00000363  00000+0  94510-4 0  9995
2 28059  98.6900  94.0120 0048847 141.3480 219.1228 14.55047941190854
CZ-2C R/B               
1 28222U 04012C   26098.12408630  .00054373  00000+0  48080-3 0  9996
2 28222  97.7158 166.2788 0013842 196.2180 163.8639 15.68369019208888
SL-16 R/B               
1 28353U 04021B   26098.22702655  .00000283  00000+0  17212-3 0  9990
2 28353  71.0012 170.5085 0005695 332.0152  28.0663 14.14602855127013
CZ-4B R/B               
1 28415U 04035C   26098.09119127  .00007324  00000+0  25433-3 0  9992
2 28415  97.3445 131.9840 0030580 221.6648 138.2263 15.29610057184403
CZ-2C R/B               
1 28480U 04046B   26098.00522753  .00000183  00000+0  82765-4 0  9998
2 28480  98.1972  11.1623 0140548  68.3639 293.2447 14.27004386112685
ARIANE 5 R/B            
1 28499U 04049H   26098.07214759  .00000940  00000+0  11008-3 0  9994
2 28499  98.2670 267.6382 0082835 255.6492 103.5515 14.85326166150153
